[{"OBJECT_NAME":"OBJECT B","OBJECT_ID":"2024-085B","EPOCH":"2026-03-04T20:39:56.131776","MEAN_MOTION":15.94230468,"ECCENTRICITY":0.0009032,"INCLINATION":97.3358,"RA_OF_ASC_NODE":155.843,"ARG_OF_PERICENTER":298.6065,"MEAN_ANOMALY":61.4301,"EPHEMERIS_TYPE":0,"CLASSIFICATION_TYPE":"U","NORAD_CAT_ID":59678,"ELEMENT_SET_NO":999,"REV_AT_EPOCH":10264,"BSTAR":0.0014647,"MEAN_MOTION_DOT":0.00542292,"MEAN_MOTION_DDOT":0.00012101},{"OBJECT_NAME":"RUZAEVKA 390 (RS44S)","OBJECT_ID":"2024-199AH","EPOCH":"2026-03-04T19:29:50.069184","MEAN_MOTION":16.04940616,"ECCENTRICITY":0.0002085,"INCLINATION":97.2841,"RA_OF_ASC_NODE":305.7881,"ARG_OF_PERICENTER":163.9326,"MEAN_ANOMALY":196.2021,"EPHEMERIS_TYPE":0,"CLASSIFICATION_TYPE":"U","NORAD_CAT_ID":61766,"ELEMENT_SET_NO":999,"REV_AT_EPOCH":11874,"BSTAR":0.0018457,"MEAN_MOTION_DOT":0.01230725,"MEAN_MOTION_DDOT":0.0008744},{"OBJECT_NAME":"SZ-19 DEB","OBJECT_ID":"2024-194E","EPOCH":"2026-03-04T18:27:33.977664","MEAN_MOTION":16.14780031,"ECCENTRICITY":0.0012585,"INCLINATION":41.4589,"RA_OF_ASC_NODE":193.0524,"ARG_OF_PERICENTER":11.9935,"MEAN_ANOMALY":348.122,"EPHEMERIS_TYPE":0,"CLASSIFICATION_TYPE":"U","NORAD_CAT_ID":63801,"ELEMENT_SET_NO":999,"REV_AT_EPOCH":4842,"BSTAR":0.00050682,"MEAN_MOTION_DOT":0.00701375,"MEAN_MOTION_DDOT":0.000291},{"OBJECT_NAME":"COSMOS 2591","OBJECT_ID":"2025-182A","EPOCH":"2026-03-04T11:39:30.254112","MEAN_MOTION":15.96328012,"ECCENTRICITY":0.00069506,"INCLINATION":96.5896,"RA_OF_ASC_NODE":356.8341,"ARG_OF_PERICENTER":170.4176,"MEAN_ANOMALY":189.7236,"EPHEMERIS_TYPE":0,"CLASSIFICATION_TYPE":"U","NORAD_CAT_ID":65267,"ELEMENT_SET_NO":999,"REV_AT_EPOCH":3099,"BSTAR":0.00015831715,"MEAN_MOTION_DOT":0.00065052,"MEAN_MOTION_DDOT":3.464732e-6},{"OBJECT_NAME":"COSMOS 2592","OBJECT_ID":"2025-182B","EPOCH":"2026-03-04T16:32:50.144928","MEAN_MOTION":15.96318498,"ECCENTRICITY":0.0007332,"INCLINATION":96.5908,"RA_OF_ASC_NODE":356.9887,"ARG_OF_PERICENTER":172.3284,"MEAN_ANOMALY":187.8108,"EPHEMERIS_TYPE":0,"CLASSIFICATION_TYPE":"U","NORAD_CAT_ID":65268,"ELEMENT_SET_NO":999,"REV_AT_EPOCH":3102,"BSTAR":1.2419e-5,"MEAN_MOTION_DOT":4.562e-5,"MEAN_MOTION_DDOT":1.8619e-6},{"OBJECT_NAME":"COSMOS 2593","OBJECT_ID":"2025-182C","EPOCH":"2026-03-04T10:54:22.377888","MEAN_MOTION":15.96384031,"ECCENTRICITY":0.00077464,"INCLINATION":96.5891,"RA_OF_ASC_NODE":356.7294,"ARG_OF_PERICENTER":174.7439,"MEAN_ANOMALY":185.3922,"EPHEMERIS_TYPE":0,"CLASSIFICATION_TYPE":"U","NORAD_CAT_ID":65269,"ELEMENT_SET_NO":999,"REV_AT_EPOCH":3098,"BSTAR":6.4760448e-5,"MEAN_MOTION_DOT":0.00026363,"MEAN_MOTION_DDOT":2.121759e-6},{"OBJECT_NAME":"COSMOS 2594","OBJECT_ID":"2025-182D","EPOCH":"2026-03-04T18:48:16.879680","MEAN_MOTION":15.96424509,"ECCENTRICITY":0.0007046,"INCLINATION":96.5902,"RA_OF_ASC_NODE":357.0225,"ARG_OF_PERICENTER":167.6404,"MEAN_ANOMALY":192.5049,"EPHEMERIS_TYPE":0,"CLASSIFICATION_TYPE":"U","NORAD_CAT_ID":65270,"ELEMENT_SET_NO":999,"REV_AT_EPOCH":3105,"BSTAR":0.0002704,"MEAN_MOTION_DOT":0.00112112,"MEAN_MOTION_DDOT":6.6589e-6},{"OBJECT_NAME":"ISS OBJECT XK","OBJECT_ID":"1998-067XK","EPOCH":"2026-03-04T07:18:37.757952","MEAN_MOTION":16.07142396,"ECCENTRICITY":0.00055034,"INCLINATION":51.6153,"RA_OF_ASC_NODE":75.0298,"ARG_OF_PERICENTER":61.4486,"MEAN_ANOMALY":298.7081,"EPHEMERIS_TYPE":0,"CLASSIFICATION_TYPE":"U","NORAD_CAT_ID":65731,"ELEMENT_SET_NO":999,"REV_AT_EPOCH":2603,"BSTAR":0.0014637024,"MEAN_MOTION_DOT":0.01169756,"MEAN_MOTION_DDOT":0.00080723506},{"OBJECT_NAME":"BOTAN","OBJECT_ID":"1998-067XP","EPOCH":"2026-03-03T07:18:10.975680","MEAN_MOTION":16.26065139,"ECCENTRICITY":0.00029265,"INCLINATION":51.604,"RA_OF_ASC_NODE":82.5602,"ARG_OF_PERICENTER":46.9281,"MEAN_ANOMALY":313.1984,"EPHEMERIS_TYPE":0,"CLASSIFICATION_TYPE":"U","NORAD_CAT_ID":65942,"ELEMENT_SET_NO":999,"REV_AT_EPOCH":2259,"BSTAR":0.0014502781,"MEAN_MOTION_DOT":0.04760636,"MEAN_MOTION_DDOT":1.2040774e-5},{"OBJECT_NAME":"STARLINK-36618","OBJECT_ID":"2026-033AC","EPOCH":"2026-03-04T20:00:03.000384","MEAN_MOTION":15.95016049,"ECCENTRICITY":0.0002235,"INCLINATION":42.9848,"RA_OF_ASC_NODE":299.2571,"ARG_OF_PERICENTER":273.1202,"MEAN_ANOMALY":170.1984,"EPHEMERIS_TYPE":0,"CLASSIFICATION_TYPE":"U","NORAD_CAT_ID":67847,"ELEMENT_SET_NO":999,"REV_AT_EPOCH":388,"BSTAR":-0.0028589,"MEAN_MOTION_DOT":-0.01153703,"MEAN_MOTION_DDOT":0.00040422},{"OBJECT_NAME":"STARLINK-36818","OBJECT_ID":"2026-035A","EPOCH":"2026-03-04T20:00:03.000384","MEAN_MOTION":15.98023796,"ECCENTRICITY":0.0001145,"INCLINATION":97.2773,"RA_OF_ASC_NODE":355.7911,"ARG_OF_PERICENTER":86.2401,"MEAN_ANOMALY":346.362,"EPHEMERIS_TYPE":0,"CLASSIFICATION_TYPE":"U","NORAD_CAT_ID":67879,"ELEMENT_SET_NO":999,"REV_AT_EPOCH":297,"BSTAR":-0.0022508,"MEAN_MOTION_DOT":-0.01018004,"MEAN_MOTION_DDOT":0.00033145},{"OBJECT_NAME":"STARLINK-36821","OBJECT_ID":"2026-035B","EPOCH":"2026-03-04T20:00:03.000384","MEAN_MOTION":15.98183153,"ECCENTRICITY":0.0001064,"INCLINATION":97.2768,"RA_OF_ASC_NODE":355.7941,"ARG_OF_PERICENTER":88.5119,"MEAN_ANOMALY":350.6672,"EPHEMERIS_TYPE":0,"CLASSIFICATION_TYPE":"U","NORAD_CAT_ID":67880,"ELEMENT_SET_NO":999,"REV_AT_EPOCH":297,"BSTAR":-0.0022458,"MEAN_MOTION_DOT":-0.01024675,"MEAN_MOTION_DDOT":0.00033607},{"OBJECT_NAME":"STARLINK-36808","OBJECT_ID":"2026-035C","EPOCH":"2026-03-04T20:00:03.000384","MEAN_MOTION":15.98110391,"ECCENTRICITY":0.0001399,"INCLINATION":97.2769,"RA_OF_ASC_NODE":355.7923,"ARG_OF_PERICENTER":97.2294,"MEAN_ANOMALY":337.8688,"EPHEMERIS_TYPE":0,"CLASSIFICATION_TYPE":"U","NORAD_CAT_ID":67881,"ELEMENT_SET_NO":999,"REV_AT_EPOCH":297,"BSTAR":-0.0022968,"MEAN_MOTION_DOT":-0.01043636,"MEAN_MOTION_DDOT":0.00034741},{"OBJECT_NAME":"STARLINK-36817","OBJECT_ID":"2026-035D","EPOCH":"2026-03-04T20:00:03.000384","MEAN_MOTION":15.983462,"ECCENTRICITY":0.0001144,"INCLINATION":97.276,"RA_OF_ASC_NODE":355.7972,"ARG_OF_PERICENTER":84.5531,"MEAN_ANOMALY":2.5896,"EPHEMERIS_TYPE":0,"CLASSIFICATION_TYPE":"U","NORAD_CAT_ID":67882,"ELEMENT_SET_NO":999,"REV_AT_EPOCH":297,"BSTAR":-0.0022533,"MEAN_MOTION_DOT":-0.01037305,"MEAN_MOTION_DDOT":0.00034441},{"OBJECT_NAME":"STARLINK-36856","OBJECT_ID":"2026-035E","EPOCH":"2026-03-04T20:00:03.000384","MEAN_MOTION":15.98258713,"ECCENTRICITY":0.0001156,"INCLINATION":97.2765,"RA_OF_ASC_NODE":355.7957,"ARG_OF_PERICENTER":77.8771,"MEAN_ANOMALY":5.5494,"EPHEMERIS_TYPE":0,"CLASSIFICATION_TYPE":"U","NORAD_CAT_ID":67883,"ELEMENT_SET_NO":999,"REV_AT_EPOCH":297,"BSTAR":-0.0022242,"MEAN_MOTION_DOT":-0.01019124,"MEAN_MOTION_DDOT":0.00033299}]
